NORAD_CAT_ID,OBJECT_NAME,OBJECT_TYPE,EPOCH,MEAN_MOTION,ECCENTRICITY,INCLINATION,RA_OF_ASC_NODE,ARG_OF_PERICENTER,MEAN_ANOMALY,BSTAR,MEAN_MOTION_DOT,MEAN_MOTION_DDOT,TLE_LINE0,TLE_LINE1,TLE_LINE2,SEMIMAJOR_AXIS,PERIOD,APOGEE,PERIGEE,DECAYED
56451.0,STARLINK-5985,PAYLOAD,2023-10-04 22:17:55,14.98330869,0.0002833,70.0005,220.4626,268.7701,91.3134,3.8258e-05,3.64e-06,0.0,0 STARLINK-5985,1 56451U 23064D   23277.92911677  .00000364  00000-0  38258-4 0  9992,2 56451  70.0005 220.4626 0002833 268.7701  91.3134 14.98330869 22415,6950.19,96.107,574.024,570.086,0.0
56451.0,STARLINK-5985,PAYLOAD,2023-10-05 06:18:35,14.98340958,0.0003067,70.0,219.6227,269.7406,90.3401,5.0567e-05,5.11e-06,0.0,0 STARLINK-5985,1 56451U 23064D   23278.26290865  .00000511  00000-0  50567-4 0  9990,2 56451  70.0000 219.6227 0003067 269.7406  90.3401 14.98340958 22821,6950.159,96.106,574.156,569.892,0.0
56451.0,STARLINK-5985,PAYLOAD,2023-10-05 20:43:48,14.98328271,0.0002795,70.0016,218.1089,258.5516,101.5329,0.00010578,1.169e-05,0.0,0 STARLINK-5985,1 56451U 23064D   23278.86375372  .00001169  00000-0  10578-3 0  9990,2 56451  70.0016 218.1089 0002795 258.5516 101.5329 14.98328271 22911,6950.198,96.107,574.006,570.121,0.0
56451.0,STARLINK-5985,PAYLOAD,2023-10-06 12:45:09,14.98324172,0.0002716,70.0023,216.4258,271.0456,89.0392,-3.4157e-05,-5e-06,0.0,0 STARLINK-5985,1 56451U 23064D   23279.53135933 -.00000500  00000-0 -34157-4 0  9992,2 56451  70.0023 216.4258 0002716 271.0456  89.0392 14.98324172 22651,6950.211,96.107,573.964,570.188,0.0
56451.0,STARLINK-5985,PAYLOAD,2023-10-06 20:45:49,14.9832383,0.0002729,70.0011,215.5835,274.03,86.0547,-4.726e-05,-6.57e-06,0.0,0 STARLINK-5985,1 56451U 23064D   23279.86516119 -.00000657  00000-0 -47260-4 0  9999,2 56451  70.0011 215.5835 0002729 274.0300  86.0547 14.98323830 22709,6950.212,96.107,573.974,570.18,0.0
56451.0,STARLINK-5985,PAYLOAD,2023-10-07 12:47:09,14.98355,0.0003178,70.0005,213.8991,275.8496,84.2301,-0.00045448,-5.515e-05,0.0,0 STARLINK-5985,1 56451U 23064D   23280.53274984 -.00005515  00000-0 -45448-3 0  9999,2 56451  70.0005 213.8991 0003178 275.8496  84.2301 14.98355000 22803,6950.116,96.105,574.189,569.772,0.0
56451.0,STARLINK-5985,PAYLOAD,2023-10-07 20:47:50,14.98329572,0.0002846,70.001,213.0588,267.0416,93.0417,2.4621e-05,2.01e-06,0.0,0 STARLINK-5985,1 56451U 23064D   23280.86655589  .00000201  00000-0  24621-4 0  9995,2 56451  70.0010 213.0588 0002846 267.0416  93.0417 14.98329572 22855,6950.194,96.107,574.037,570.081,0.0
56451.0,STARLINK-5985,PAYLOAD,2023-10-08 03:12:22,14.98331734,0.000289,70.0011,212.3859,263.6034,96.4796,3.5354e-05,3.29e-06,0.0,0 STARLINK-5985,1 56451U 23064D   23281.13359411  .00000329  00000-0  35354-4 0  9997,2 56451  70.0011 212.3859 0002890 263.6034  96.4796 14.98331734 23251,6950.188,96.107,574.061,570.044,0.0
56451.0,STARLINK-5985,PAYLOAD,2023-10-08 12:49:10,14.9833707,0.0002981,70.0007,211.377,270.8609,89.2209,-4.9866e-05,-6.88e-06,0.0,0 STARLINK-5985,1 56451U 23064D   23281.53415170 -.00000688  00000-0 -49866-4 0  9999,2 56451  70.0007 211.3770 0002981 270.8609  89.2209 14.98337070 22950,6950.171,96.107,574.108,569.964,0.0
56451.0,STARLINK-5985,PAYLOAD,2023-10-08 20:49:51,14.98324791,0.0002863,70.0014,210.5355,271.2766,88.8065,8.6067e-05,9.34e-06,0.0,0 STARLINK-5985,1 56451U 23064D   23281.86795684  .00000934  00000-0  86067-4 0  9992,2 56451  70.0014 210.5355 0002863 271.2766  88.8065 14.98324791 23004,6950.209,96.107,574.064,570.084,0.0
56451.0,STARLINK-5985,PAYLOAD,2023-10-09 03:14:23,14.9832931,0.0002877,70.0008,209.8597,264.3115,95.7716,0.00010971,1.216e-05,0.0,0 STARLINK-5985,1 56451U 23064D   23282.13499309  .00001216  00000-0  10971-3 0  9992,2 56451  70.0008 209.8597 0002877 264.3115  95.7716 14.98329310 23408,6950.195,96.107,574.06,570.06,0.0
56451.0,STARLINK-5985,PAYLOAD,2023-10-09 12:51:12,14.98329318,0.000272,70.001,208.8504,274.6481,85.4367,1.0043e-05,2.7e-07,0.0,0 STARLINK-5985,1 56451U 23064D   23282.53555636  .00000027  00000-0  10043-4 0  9992,2 56451  70.0010 208.8504 0002720 274.6481  85.4367 14.98329318 23108,6950.195,96.107,573.95,570.17,0.0
56451.0,STARLINK-5985,PAYLOAD,2023-10-09 20:51:52,14.98324848,0.0002871,70.0009,208.0078,272.7692,87.3138,-1.1107e-06,-1.06e-06,0.0,0 STARLINK-5985,1 56451U 23064D   23282.86935920 -.00000106  00000-0 -11107-5 0  9999,2 56451  70.0009 208.0078 0002871 272.7692  87.3138 14.98324848 23159,6950.209,96.107,574.069,570.078,0.0
56451.0,STARLINK-5985,PAYLOAD,2023-10-10 01:40:16,14.98326286,0.0002706,70.0005,207.5025,268.3516,91.7333,-3.1389e-05,-4.67e-06,0.0,0 STARLINK-5985,1 56451U 23064D   23283.06963962 -.00000467  00000-0 -31389-4 0  9992,2 56451  70.0005 207.5025 0002706 268.3516  91.7333 14.98326286 23541,6950.204,96.107,573.95,570.189,0.0
56451.0,STARLINK-5985,PAYLOAD,2023-10-10 06:28:40,14.98337151,0.0002993,70.0008,206.9993,268.1741,91.9075,5.7095e-05,5.88e-06,0.0,0 STARLINK-5985,1 56451U 23064D   23283.26990940  .00000588  00000-0  57095-4 0  9994,2 56451  70.0008 206.9993 0002993 268.1741  91.9075 14.98337151 23578,6950.171,96.107,574.116,569.956,0.0
56451.0,STARLINK-5985,PAYLOAD,2023-10-10 19:17:45,14.98322736,0.0002767,70.0008,205.6521,273.6732,86.4111,-5.3079e-05,-7.26e-06,0.0,0 STARLINK-5985,1 56451U 23064D   23283.80400314 -.00000726  00000-0 -53079-4 0  9999,2 56451  70.0008 205.6521 0002767 273.6732  86.4111 14.98322736 23653,6950.215,96.107,574.003,570.157,0.0
56451.0,STARLINK-5985,PAYLOAD,2023-10-10 20:53:54,14.983202,0.0002836,70.001,205.4841,275.4858,84.5978,-6.6094e-05,-8.81e-06,0.0,0 STARLINK-5985,1 56451U 23064D   23283.87076526 -.00000881  00000-0 -66094-4 0  9993,2 56451  70.0010 205.4841 0002836 275.4858  84.5978 14.98320200 23301,6950.223,96.108,574.059,570.117,0.0
56451.0,STARLINK-5985,PAYLOAD,2023-10-11 04:54:33,14.98327839,0.0002622,70.0014,204.6428,262.7595,97.3266,-1.2081e-05,-2.37e-06,0.0,0 STARLINK-5985,1 56451U 23064D   23284.20455948 -.00000237  00000-0 -12081-4 0  9992,2 56451  70.0014 204.6428 0002622 262.7595  97.3266 14.98327839 23719,6950.2,96.107,573.887,570.242,0.0
56451.0,STARLINK-5985,PAYLOAD,2023-10-12 04:56:34,14.98334767,0.0002674,70.0013,202.1209,261.6726,98.413,3.7806e-05,3.58e-06,0.0,0 STARLINK-5985,1 56451U 23064D   23285.20595562  .00000358  00000-0  37806-4 0  9994,2 56451  70.0013 202.1209 0002674 261.6726  98.4130 14.98334767 23865,6950.178,96.107,573.902,570.185,0.0
56451.0,STARLINK-5985,PAYLOAD,2023-10-12 11:21:07,14.98337436,0.000247,70.0015,201.4461,287.9345,72.1544,-9.7296e-05,-1.254e-05,0.0,0 STARLINK-5985,1 56451U 23064D   23285.47299959 -.00001254  00000-0 -97296-4 0  9991,2 56451  70.0015 201.4461 0002470 287.9345  72.1544 14.98337436 23540,6950.17,96.107,573.752,570.318,0.0
56451.0,STARLINK-5985,PAYLOAD,2023-10-12 19:21:47,14.9832788,0.0002571,70.0021,200.6042,271.5058,88.5807,0.00012613,1.412e-05,0.0,0 STARLINK-5985,1 56451U 23064D   23285.80679830  .00001412  00000-0  12613-3 0  9991,2 56451  70.0021 200.6042 0002571 271.5058  88.5807 14.98327880 23955,6950.199,96.107,573.851,570.278,0.0
56451.0,STARLINK-5985,PAYLOAD,2023-10-12 20:57:55,14.98328286,0.000243,70.0021,200.4359,270.7252,89.3628,0.00012639,1.415e-05,0.0,0 STARLINK-5985,1 56451U 23064D   23285.87355815  .00001415  00000-0  12639-3 0  9993,2 56451  70.0021 200.4359 0002430 270.7252  89.3628 14.98328286 23608,6950.198,96.107,573.752,570.374,0.0
56451.0,STARLINK-5985,PAYLOAD,2023-10-13 03:22:26,14.98367179,0.0002599,70.0005,199.763,265.7062,94.38,-0.0003555,-4.336e-05,0.0,0 STARLINK-5985,1 56451U 23064D   23286.14058293 -.00004336  00000-0 -35550-3 0  9998,2 56451  70.0005 199.7630 0002599 265.7062  94.3800 14.98367179 24008,6950.078,96.105,573.749,570.137,0.0
56451.0,STARLINK-5985,PAYLOAD,2023-10-13 11:23:07,14.98334898,0.0002456,70.0016,198.9217,267.6973,92.3905,7.0363e-05,7.47e-06,0.0,0 STARLINK-5985,1 56451U 23064D   23286.47439370  .00000747  00000-0  70363-4 0  9995,2 56451  70.0016 198.9217 0002456 267.6973  92.3905 14.98334898 24057,6950.178,96.107,573.75,570.336,0.0
56451.0,STARLINK-5985,PAYLOAD,2023-10-13 20:59:56,14.98333712,0.0002682,70.0008,197.911,269.1737,90.9115,3.8796e-05,3.7e-06,0.0,0 STARLINK-5985,1 56451U 23064D   23286.87495378  .00000370  00000-0  38796-4 0  9995,2 56451  70.0008 197.9110 0002682 269.1737  90.9115 14.98333712 23752,6950.181,96.107,573.91,570.182,0.0
56451.0,STARLINK-5985,PAYLOAD,2023-10-14 03:24:27,14.98342824,0.0002716,70.0004,197.2371,267.2349,92.8499,0.00013708,1.544e-05,0.0,0 STARLINK-5985,1 56451U 23064D   23287.14198350  .00001544  00000-0  13708-3 0  9995,2 56451  70.0004 197.2371 0002716 267.2349  92.8499 14.98342824 24151,6950.153,96.106,573.906,570.131,0.0
56451.0,STARLINK-5985,PAYLOAD,2023-10-14 11:25:09,14.98337002,0.0002666,70.0005,196.3954,277.2558,82.8298,-0.00037668,-4.585e-05,0.0,0 STARLINK-5985,1 56451U 23064D   23287.47579862 -.00004585  00000-0 -37668-3 0  9993,2 56451  70.0005 196.3954 0002666 277.2558  82.8298 14.98337002 23849,6950.171,96.107,573.889,570.183,0.0
56451.0,STARLINK-5985,PAYLOAD,2023-10-14 19:25:50,14.98311811,0.000282,70.0015,195.5551,272.1099,87.9737,-0.00027322,-3.35e-05,0.0,0 STARLINK-5985,1 56451U 23064D   23287.80961371 -.00003350  00000-0 -27322-3 0  9995,2 56451  70.0015 195.5551 0002820 272.1099  87.9737 14.98311811 24250,6950.249,96.108,574.074,570.154,0.0
56451.0,STARLINK-5985,PAYLOAD,2023-10-14 21:01:58,14.98311856,0.0002789,70.0015,195.3868,271.8383,88.2456,-0.00026716,-3.278e-05,0.0,0 STARLINK-5985,1 56451U 23064D   23287.87637440 -.00003278  00000-0 -26716-3 0  9994,2 56451  70.0015 195.3868 0002789 271.8383  88.2456 14.98311856 23907,6950.249,96.108,574.052,570.176,0.0
56451.0,STARLINK-5985,PAYLOAD,2023-10-15 03:26:30,14.98317684,0.0002826,70.0008,194.7133,270.1074,89.9761,-0.00019965,-2.474e-05,0.0,0 STARLINK-5985,1 56451U 23064D   23288.14341036 -.00002474  00000-0 -19965-3 0  9993,2 56451  70.0008 194.7133 0002826 270.1074  89.9761 14.98317684 24305,6950.231,96.108,574.06,570.132,0.0
